[{"OBJECT_NAME":"HAWK-2A","OBJECT_ID":"2021-006CW","EPOCH":"2026-03-09T16:18:25.817472","MEAN_MOTION":15.33304498,"ECCENTRICITY":0.00064498,"INCLINATION":97.2459,"RA_OF_ASC_NODE":115.6184,"ARG_OF_PERICENTER":187.1463,"MEAN_ANOMALY":172.9689,"EPHEMERIS_TYPE":0,"CLASSIFICATION_TYPE":"U","NORAD_CAT_ID":47505,"ELEMENT_SET_NO":999,"REV_AT_EPOCH":28424,"BSTAR":0.0002543136,"MEAN_MOTION_DOT":8.113e-5,"MEAN_MOTION_DDOT":0},{"OBJECT_NAME":"STARLINK-31323","OBJECT_ID":"2024-020G","EPOCH":"2026-03-09T21:26:58.632288","MEAN_MOTION":15.30197187,"ECCENTRICITY":7.152e-5,"INCLINATION":53.162,"RA_OF_ASC_NODE":321.3789,"ARG_OF_PERICENTER":64.5266,"MEAN_ANOMALY":295.5809,"EPHEMERIS_TYPE":0,"CLASSIFICATION_TYPE":"U","NORAD_CAT_ID":58882,"ELEMENT_SET_NO":999,"REV_AT_EPOCH":11810,"BSTAR":2.7795841e-5,"MEAN_MOTION_DOT":4.64e-6,"MEAN_MOTION_DDOT":0}]
